[{"OBJECT_NAME":"STARLINK-31954","OBJECT_ID":"2024-117M","EPOCH":"2026-03-20T22:09:24.705504","MEAN_MOTION":15.3019977,"ECCENTRICITY":0.0001356,"INCLINATION":53.162,"RA_OF_ASC_NODE":345.1413,"ARG_OF_PERICENTER":94.9527,"MEAN_ANOMALY":265.1628,"EPHEMERIS_TYPE":0,"CLASSIFICATION_TYPE":"U","NORAD_CAT_ID":60102,"ELEMENT_SET_NO":999,"REV_AT_EPOCH":9860,"BSTAR":6.08532e-5,"MEAN_MOTION_DOT":1.443e-5,"MEAN_MOTION_DDOT":0},{"OBJECT_NAME":"STARLINK-32013","OBJECT_ID":"2024-117N","EPOCH":"2026-03-20T22:04:51.082752","MEAN_MOTION":15.30198327,"ECCENTRICITY":0.00013532,"INCLINATION":53.1613,"RA_OF_ASC_NODE":345.1215,"ARG_OF_PERICENTER":97.4305,"MEAN_ANOMALY":262.685,"EPHEMERIS_TYPE":0,"CLASSIFICATION_TYPE":"U","NORAD_CAT_ID":60103,"ELEMENT_SET_NO":999,"REV_AT_EPOCH":9860,"BSTAR":2.3682903e-5,"MEAN_MOTION_DOT":3.42e-6,"MEAN_MOTION_DDOT":0},{"OBJECT_NAME":"STARLINK-32009","OBJECT_ID":"2024-117P","EPOCH":"2026-03-20T22:23:05.006112","MEAN_MOTION":15.30193457,"ECCENTRICITY":0.00012205,"INCLINATION":53.1622,"RA_OF_ASC_NODE":345.1739,"ARG_OF_PERICENTER":84.0172,"MEAN_ANOMALY":276.0967,"EPHEMERIS_TYPE":0,"CLASSIFICATION_TYPE":"U","NORAD_CAT_ID":60104,"ELEMENT_SET_NO":999,"REV_AT_EPOCH":9860,"BSTAR":1.8731236e-5,"MEAN_MOTION_DOT":1.96e-6,"MEAN_MOTION_DDOT":0},{"OBJECT_NAME":"STARLINK-32018","OBJECT_ID":"2024-117Q","EPOCH":"2026-03-20T21:51:10.581696","MEAN_MOTION":15.30204954,"ECCENTRICITY":0.00011529,"INCLINATION":53.1603,"RA_OF_ASC_NODE":345.0615,"ARG_OF_PERICENTER":99.0343,"MEAN_ANOMALY":261.0788,"EPHEMERIS_TYPE":0,"CLASSIFICATION_TYPE":"U","NORAD_CAT_ID":60105,"ELEMENT_SET_NO":999,"REV_AT_EPOCH":9860,"BSTAR":6.3705778e-5,"MEAN_MOTION_DOT":1.528e-5,"MEAN_MOTION_DDOT":0},{"OBJECT_NAME":"STARLINK-32045","OBJECT_ID":"2024-117R","EPOCH":"2026-03-20T21:55:43.981536","MEAN_MOTION":15.30197784,"ECCENTRICITY":0.00012645,"INCLINATION":53.1608,"RA_OF_ASC_NODE":345.0819,"ARG_OF_PERICENTER":92.8942,"MEAN_ANOMALY":267.2204,"EPHEMERIS_TYPE":0,"CLASSIFICATION_TYPE":"U","NORAD_CAT_ID":60106,"ELEMENT_SET_NO":999,"REV_AT_EPOCH":9860,"BSTAR":2.8899837e-5,"MEAN_MOTION_DOT":4.97e-6,"MEAN_MOTION_DDOT":0},{"OBJECT_NAME":"STARLINK-32035","OBJECT_ID":"2024-117S","EPOCH":"2026-03-20T23:10:01.885440","MEAN_MOTION":15.30204542,"ECCENTRICITY":0.0001083,"INCLINATION":53.1616,"RA_OF_ASC_NODE":344.6891,"ARG_OF_PERICENTER":91.147,"MEAN_ANOMALY":268.9655,"EPHEMERIS_TYPE":0,"CLASSIFICATION_TYPE":"U","NORAD_CAT_ID":60107,"ELEMENT_SET_NO":999,"REV_AT_EPOCH":9861,"BSTAR":7.3164444e-5,"MEAN_MOTION_DOT":1.809e-5,"MEAN_MOTION_DDOT":0},{"OBJECT_NAME":"STARLINK-32042","OBJECT_ID":"2024-117T","EPOCH":"2026-03-20T22:56:23.246304","MEAN_MOTION":15.30189367,"ECCENTRICITY":0.00010517,"INCLINATION":53.162,"RA_OF_ASC_NODE":344.631,"ARG_OF_PERICENTER":93.3232,"MEAN_ANOMALY":266.7889,"EPHEMERIS_TYPE":0,"CLASSIFICATION_TYPE":"U","NORAD_CAT_ID":60108,"ELEMENT_SET_NO":999,"REV_AT_EPOCH":9861,"BSTAR":-0.00020938033,"MEAN_MOTION_DOT":-6.553e-5,"MEAN_MOTION_DDOT":0},{"OBJECT_NAME":"STARLINK-32040","OBJECT_ID":"2024-117U","EPOCH":"2026-03-20T22:30:31.091904","MEAN_MOTION":15.30202784,"ECCENTRICITY":0.00012811,"INCLINATION":53.1619,"RA_OF_ASC_NODE":344.5232,"ARG_OF_PERICENTER":79.1877,"MEAN_ANOMALY":280.9268,"EPHEMERIS_TYPE":0,"CLASSIFICATION_TYPE":"U","NORAD_CAT_ID":60109,"ELEMENT_SET_NO":999,"REV_AT_EPOCH":9861,"BSTAR":0.00018103484,"MEAN_MOTION_DOT":5.007e-5,"MEAN_MOTION_DDOT":0},{"OBJECT_NAME":"STARLINK-32001","OBJECT_ID":"2024-117V","EPOCH":"2026-03-20T22:42:40.501440","MEAN_MOTION":15.30202263,"ECCENTRICITY":0.00012024,"INCLINATION":53.1618,"RA_OF_ASC_NODE":344.569,"ARG_OF_PERICENTER":74.8286,"MEAN_ANOMALY":285.2848,"EPHEMERIS_TYPE":0,"CLASSIFICATION_TYPE":"U","NORAD_CAT_ID":60110,"ELEMENT_SET_NO":999,"REV_AT_EPOCH":9861,"BSTAR":4.6417238e-5,"MEAN_MOTION_DOT":1.016e-5,"MEAN_MOTION_DDOT":0},{"OBJECT_NAME":"STARLINK-32015","OBJECT_ID":"2024-117W","EPOCH":"2026-03-20T22:33:33.851232","MEAN_MOTION":15.30198194,"ECCENTRICITY":0.00011901,"INCLINATION":53.1622,"RA_OF_ASC_NODE":344.5286,"ARG_OF_PERICENTER":84.0328,"MEAN_ANOMALY":276.0809,"EPHEMERIS_TYPE":0,"CLASSIFICATION_TYPE":"U","NORAD_CAT_ID":60111,"ELEMENT_SET_NO":999,"REV_AT_EPOCH":9861,"BSTAR":8.3264452e-5,"MEAN_MOTION_DOT":2.108e-5,"MEAN_MOTION_DDOT":0},{"OBJECT_NAME":"STARLINK-32024","OBJECT_ID":"2024-117X","EPOCH":"2026-03-20T22:51:48.229920","MEAN_MOTION":15.30203157,"ECCENTRICITY":0.0001097,"INCLINATION":53.1612,"RA_OF_ASC_NODE":344.6071,"ARG_OF_PERICENTER":72.1288,"MEAN_ANOMALY":287.9832,"EPHEMERIS_TYPE":0,"CLASSIFICATION_TYPE":"U","NORAD_CAT_ID":60112,"ELEMENT_SET_NO":999,"REV_AT_EPOCH":9861,"BSTAR":6.7058721e-5,"MEAN_MOTION_DOT":1.628e-5,"MEAN_MOTION_DDOT":0},{"OBJECT_NAME":"STARLINK-11201 [DTC]","OBJECT_ID":"2024-118A","EPOCH":"2026-03-20T17:36:44.172576","MEAN_MOTION":15.69721571,"ECCENTRICITY":6.286e-5,"INCLINATION":53.1594,"RA_OF_ASC_NODE":167.1334,"ARG_OF_PERICENTER":75.8256,"MEAN_ANOMALY":284.2831,"EPHEMERIS_TYPE":0,"CLASSIFICATION_TYPE":"U","NORAD_CAT_ID":60113,"ELEMENT_SET_NO":999,"REV_AT_EPOCH":9972,"BSTAR":9.800986e-6,"MEAN_MOTION_DOT":6.0e-6,"MEAN_MOTION_DDOT":0},{"OBJECT_NAME":"STARLINK-11198 [DTC]","OBJECT_ID":"2024-118B","EPOCH":"2026-03-20T12:54:38.289024","MEAN_MOTION":15.69707601,"ECCENTRICITY":0.00012115,"INCLINATION":53.1591,"RA_OF_ASC_NODE":168.0423,"ARG_OF_PERICENTER":53.7796,"MEAN_ANOMALY":306.3334,"EPHEMERIS_TYPE":0,"CLASSIFICATION_TYPE":"U","NORAD_CAT_ID":60114,"ELEMENT_SET_NO":999,"REV_AT_EPOCH":9969,"BSTAR":9.468226e-6,"MEAN_MOTION_DOT":5.58e-6,"MEAN_MOTION_DDOT":0},{"OBJECT_NAME":"STARLINK-11112 [DTC]","OBJECT_ID":"2024-118C","EPOCH":"2026-03-20T12:47:34.669824","MEAN_MOTION":15.69702439,"ECCENTRICITY":9.983e-5,"INCLINATION":53.1559,"RA_OF_ASC_NODE":168.0086,"ARG_OF_PERICENTER":42.4086,"MEAN_ANOMALY":317.7009,"EPHEMERIS_TYPE":0,"CLASSIFICATION_TYPE":"U","NORAD_CAT_ID":60115,"ELEMENT_SET_NO":999,"REV_AT_EPOCH":9969,"BSTAR":1.1112806e-5,"MEAN_MOTION_DOT":7.58e-6,"MEAN_MOTION_DDOT":0},{"OBJECT_NAME":"STARLINK-11210 [DTC]","OBJECT_ID":"2024-118D","EPOCH":"2026-03-20T12:40:31.121472","MEAN_MOTION":15.69702717,"ECCENTRICITY":8.446e-5,"INCLINATION":53.1597,"RA_OF_ASC_NODE":167.9778,"ARG_OF_PERICENTER":56.0644,"MEAN_ANOMALY":304.0454,"EPHEMERIS_TYPE":0,"CLASSIFICATION_TYPE":"U","NORAD_CAT_ID":60116,"ELEMENT_SET_NO":999,"REV_AT_EPOCH":9969,"BSTAR":-7.182569e-6,"MEAN_MOTION_DOT":-1.458e-5,"MEAN_MOTION_DDOT":0},{"OBJECT_NAME":"STARLINK-11203 [DTC]","OBJECT_ID":"2024-118E","EPOCH":"2026-03-20T12:33:26.909568","MEAN_MOTION":15.69711455,"ECCENTRICITY":8.064e-5,"INCLINATION":53.1582,"RA_OF_ASC_NODE":167.9444,"ARG_OF_PERICENTER":62.0373,"MEAN_ANOMALY":298.0727,"EPHEMERIS_TYPE":0,"CLASSIFICATION_TYPE":"U","NORAD_CAT_ID":60117,"ELEMENT_SET_NO":999,"REV_AT_EPOCH":9969,"BSTAR":7.2321812e-5,"MEAN_MOTION_DOT":8.182e-5,"MEAN_MOTION_DDOT":0},{"OBJECT_NAME":"STARLINK-11177 [DTC]","OBJECT_ID":"2024-118F","EPOCH":"2026-03-20T15:29:45.265056","MEAN_MOTION":15.69706374,"ECCENTRICITY":0.00011844,"INCLINATION":53.1599,"RA_OF_ASC_NODE":167.2834,"ARG_OF_PERICENTER":85.8878,"MEAN_ANOMALY":274.2275,"EPHEMERIS_TYPE":0,"CLASSIFICATION_TYPE":"U","NORAD_CAT_ID":60118,"ELEMENT_SET_NO":999,"REV_AT_EPOCH":9971,"BSTAR":-2.665102e-6,"MEAN_MOTION_DOT":-9.11e-6,"MEAN_MOTION_DDOT":0},{"OBJECT_NAME":"STARLINK-11127 [DTC]","OBJECT_ID":"2024-118G","EPOCH":"2026-03-20T16:54:22.250016","MEAN_MOTION":15.69713913,"ECCENTRICITY":7.879e-5,"INCLINATION":53.1569,"RA_OF_ASC_NODE":166.9361,"ARG_OF_PERICENTER":78.6335,"MEAN_ANOMALY":281.4771,"EPHEMERIS_TYPE":0,"CLASSIFICATION_TYPE":"U","NORAD_CAT_ID":60119,"ELEMENT_SET_NO":999,"REV_AT_EPOCH":9972,"BSTAR":-1.1407188e-5,"MEAN_MOTION_DOT":-1.97e-5,"MEAN_MOTION_DDOT":0},{"OBJECT_NAME":"STARLINK-11164 [DTC]","OBJECT_ID":"2024-118H","EPOCH":"2026-03-20T22:54:01.684224","MEAN_MOTION":15.69719311,"ECCENTRICITY":8.422e-5,"INCLINATION":53.1596,"RA_OF_ASC_NODE":165.6495,"ARG_OF_PERICENTER":73.4219,"MEAN_ANOMALY":286.6892,"EPHEMERIS_TYPE":0,"CLASSIFICATION_TYPE":"U","NORAD_CAT_ID":60120,"ELEMENT_SET_NO":999,"REV_AT_EPOCH":9976,"BSTAR":8.963686e-6,"MEAN_MOTION_DOT":4.98e-6,"MEAN_MOTION_DDOT":0},{"OBJECT_NAME":"STARLINK-11119 [DTC]","OBJECT_ID":"2024-118J","EPOCH":"2026-03-20T22:32:50.382528","MEAN_MOTION":15.69718055,"ECCENTRICITY":9.348e-5,"INCLINATION":53.1571,"RA_OF_ASC_NODE":165.5501,"ARG_OF_PERICENTER":90.9037,"MEAN_ANOMALY":269.2088,"EPHEMERIS_TYPE":0,"CLASSIFICATION_TYPE":"U","NORAD_CAT_ID":60121,"ELEMENT_SET_NO":999,"REV_AT_EPOCH":9976,"BSTAR":-7.24857e-7,"MEAN_MOTION_DOT":-6.76e-6,"MEAN_MOTION_DDOT":0},{"OBJECT_NAME":"STARLINK-11157 [DTC]","OBJECT_ID":"2024-118K","EPOCH":"2026-03-20T15:01:29.762688","MEAN_MOTION":15.69717794,"ECCENTRICITY":0.0001149,"INCLINATION":53.1563,"RA_OF_ASC_NODE":167.1526,"ARG_OF_PERICENTER":94.462,"MEAN_ANOMALY":265.6529,"EPHEMERIS_TYPE":0,"CLASSIFICATION_TYPE":"U","NORAD_CAT_ID":60122,"ELEMENT_SET_NO":999,"REV_AT_EPOCH":9971,"BSTAR":0.00011677,"MEAN_MOTION_DOT":0.00013586,"MEAN_MOTION_DDOT":0},{"OBJECT_NAME":"STARLINK-11162 [DTC]","OBJECT_ID":"2024-118L","EPOCH":"2026-03-20T22:25:46.879104","MEAN_MOTION":15.69715429,"ECCENTRICITY":9.654e-5,"INCLINATION":53.1612,"RA_OF_ASC_NODE":165.516,"ARG_OF_PERICENTER":82.5842,"MEAN_ANOMALY":277.5286,"EPHEMERIS_TYPE":0,"CLASSIFICATION_TYPE":"U","NORAD_CAT_ID":60123,"ELEMENT_SET_NO":999,"REV_AT_EPOCH":9976,"BSTAR":-4.585863e-6,"MEAN_MOTION_DOT":-1.144e-5,"MEAN_MOTION_DDOT":0},{"OBJECT_NAME":"STARLINK-11161 [DTC]","OBJECT_ID":"2024-118M","EPOCH":"2026-03-20T10:05:24.448704","MEAN_MOTION":15.69690853,"ECCENTRICITY":0.00014642,"INCLINATION":53.1606,"RA_OF_ASC_NODE":168.7318,"ARG_OF_PERICENTER":92.9299,"MEAN_ANOMALY":267.1887,"EPHEMERIS_TYPE":0,"CLASSIFICATION_TYPE":"U","NORAD_CAT_ID":60124,"ELEMENT_SET_NO":999,"REV_AT_EPOCH":9967,"BSTAR":2.8514439e-5,"MEAN_MOTION_DOT":2.864e-5,"MEAN_MOTION_DDOT":0}]
